H1 CPF 01  gfz 2021 02 19 01  5501 terrasarx 
H2 0702601  6201 31698    2021 02 19 00 59 42 2021 02 24 00 00 42   120 1 1  0 0 0
H9
10 0 59266  12942.000000  0     444201.220   1418813.097   6715474.623
10 0 59266  13062.000000  0    1191026.242   1911664.479   6499366.456
10 0 59266  13182.000000  0    1925289.030   2358195.331   6169035.502
10 0 59266  13302.000000  0    2633290.735   2750941.163   5730254.831
10 0 59266  13422.000000  0    3301660.109   3083605.791   5190702.276
10 0 59266  13542.000000  0    3917609.565   3351165.425   4559831.489
10 0 59266  13662.000000  0    4469182.452   3549946.778   3848711.137
10 0 59266  13782.000000  0    4945492.503   3677679.502   3069836.830
10 0 59266  13902.000000  0    5336946.589   3733520.162   2236909.934
10 0 59266  14022.000000  0    5635443.166   3718045.457   1364594.434
10 0 59266  14142.000000  0    5834544.498   3633217.304    468253.374
10 0 59266  14262.000000  0    5929616.555   3482318.491   -436330.017
10 0 59266  14382.000000  0    5917932.627   3269860.915  -1333239.008
10 0 59266  14502.000000  0    5798738.601   3001468.901  -2206711.879
10 0 59266  14622.000000  0    5573277.783   2683741.496  -3041425.419
10 0 59266  14742.000000  0    5244776.566   2324096.975  -3822767.984
10 0 59266  14862.000000  0    4818391.614   1930603.248  -4537097.143
10 0 59266  14982.000000  0    4301117.525   1511798.301  -5171975.844
10 0 59266  15102.000000  0    3701661.623   1076506.642  -5716381.193
10 0 59266  15222.000000  0    3030288.925    633655.939  -6160886.829
10 0 59266  15342.000000  0    2298639.245    192096.775  -6497815.246
10 0 59266  15462.000000  0    1519522.375   -239570.097  -6721358.423
10 0 59266  15582.000000  0     706695.120   -653157.075  -6827668.862
10 0 59266  15702.000000  0    -125379.685  -1041041.120  -6814918.690
10 0 59266  15822.000000  0    -961784.615  -1396299.927  -6683326.099
10 0 59266  15942.000000  0   -1787408.338  -1712832.188  -6435152.885
10 0 59266  16062.000000  0   -2587212.889  -1985460.775  -6074669.661
10 0 59266  16182.000000  0   -3346501.475  -2210016.331  -5608089.615
10 0 59266  16302.000000  0   -4051185.844  -2383401.879  -5043473.508
10 0 59266  16422.000000  0   -4688049.975  -2503636.384  -4390602.014
10 0 59266  16542.000000  0   -5245002.318  -2569875.777  -3660816.836
10 0 59266  16662.000000  0   -5711313.067  -2582411.225  -2866832.744
10 0 59266  16782.000000  0   -6077830.674  -2542643.658  -2022521.508
10 0 59266  16902.000000  0   -6337171.588  -2453035.223  -1142671.651
10 0 59266  17022.000000  0   -6483878.688  -2317038.166   -242727.583
10 0 59266  17142.000000  0   -6514543.118  -2139002.473    661486.600
10 0 59266  17262.000000  0   -6427886.620  -1924064.200   1554053.230
10 0 59266  17382.000000  0   -6224800.274  -1678017.457   2419251.068
10 0 59266  17502.000000  0   -5908338.377  -1407173.491   3241840.858
10 0 59266  17622.000000  0   -5483670.142  -1118210.140   4007341.284
10 0 59266  17742.000000  0   -4957986.871   -818015.450   4702289.935
10 0 59266  17862.000000  0   -4340370.012   -513530.270   5314479.891
10 0 59266  17982.000000  0   -3641626.246   -211593.617   5833172.521
10 0 59266  18102.000000  0   -2874089.480     81206.755   6249283.045
10 0 59266  18222.000000  0   -2051395.071    358674.368   6555533.962
10 0 59266  18342.000000  0   -1188232.121    615131.005   6746576.160
10 0 59266  18462.000000  0    -300078.389    845530.478   6819076.383
10 0 59266  18582.000000  0     597077.342   1045556.295   6771771.015
10 0 59266  18702.000000  0    1487021.948   1211702.023   6605486.691
10 0 59266  18822.000000  0    2353609.977   1341333.151   6323126.710
10 0 59266  18942.000000  0    3181055.910   1432728.831   5929623.917
10 0 59266  19062.000000  0    3954223.932   1485103.336   5431859.941
10 0 59266  19182.000000  0    4658907.607   1498606.748   4838550.001
10 0 59266  19302.000000  0    5282096.433   1474305.721   4160098.121
10 0 59266  19422.000000  0    5812226.642   1414143.712   3408419.258
10 0 59266  19542.000000  0    6239404.795   1320881.777   2596729.947
10 0 59266  19662.000000  0    6555601.497   1198019.639   1739315.787
10 0 59266  19782.000000  0    6754811.463   1049701.069    851275.633
10 0 59266  19902.000000  0    6833173.326    880604.384    -51750.965
10 0 59266  20022.000000  0    6789048.002    695821.124   -953867.776
10 0 59266  20142.000000  0    6623050.368    500725.882  -1839211.402
10 0 59266  20262.000000  0    6338035.606    300840.423  -2692237.445
10 0 59266  20382.000000  0    5939041.871    101696.309  -3497999.008
10 0 59266  20502.000000  0    5433190.223    -91300.645  -4242411.695
10 0 59266  20622.000000  0    4829543.889   -273000.598  -4912499.076
10 0 59266  20742.000000  0    4138932.880   -438631.183  -5496612.729
10 0 59266  20862.000000  0    3373750.129   -583908.226  -5984626.499
10 0 59266  20982.000000  0    2547721.382   -705134.026  -6368102.693
10 0 59266  21102.000000  0    1675654.074   -799279.818  -6640426.018
10 0 59266  21222.000000  0     773172.543   -864052.538  -6796906.596
10 0 59266  21342.000000  0    -143558.897   -897944.521  -6834852.956
10 0 59266  21462.000000  0   -1058119.787   -900264.646  -6753612.340
10 0 59266  21582.000000  0   -1954120.521   -871151.775  -6554581.245
10 0 59266  21702.000000  0   -2815489.920   -811569.353  -6241183.292
10 0 59266  21822.000000  0   -3626756.516   -723281.986  -5818815.910
10 0 59266  21942.000000  0   -4373323.738   -608814.157  -5294768.731
10 0 59266  22062.000000  0   -5041734.509   -471391.104  -4678108.634
10 0 59266  22182.000000  0   -5619918.347   -314863.525  -3979534.441
10 0 59266  22302.000000  0   -6097419.019   -143616.950  -3211202.036
10 0 59266  22422.000000  0   -6465595.291     37533.328  -2386519.587
10 0 59266  22542.000000  0   -6717790.675    223458.664  -1519917.883
10 0 59266  22662.000000  0   -6849467.581    408843.424   -626597.395
10 0 59266  22782.000000  0   -6858299.723    588316.717    277744.325
10 0 59266  22902.000000  0   -6744219.153    756587.293   1177194.900
10 0 59266  23022.000000  0   -6509420.452    908577.651   2055914.812
10 0 59266  23142.000000  0   -6158319.011   1039553.958   2898425.904
10 0 59266  23262.000000  0   -5697463.507   1145248.368   3689892.830
10 0 59266  23382.000000  0   -5135405.368   1221970.405   4416390.250
10 0 59266  23502.000000  0   -4482530.285   1266704.931   5065150.285
10 0 59266  23622.000000  0   -3750856.447   1277193.984   5624786.076
10 0 59266  23742.000000  0   -2953804.857   1252001.345   6085488.890
10 0 59266  23862.000000  0   -2105945.593   1190558.208   6439196.435
10 0 59266  23982.000000  0   -1222724.395   1093189.703   6679728.192
10 0 59266  24102.000000  0    -320177.691    961120.803   6802885.915
10 0 59266  24222.000000  0     585358.583    796462.305   6806521.562
10 0 59266  24342.000000  0    1477543.457    602176.960   6690572.167
10 0 59266  24462.000000  0    2340324.424    382026.637   6457060.964
10 0 59266  24582.000000  0    3158225.532    140500.813   6110065.268
10 0 59266  24702.000000  0    3916626.932   -117272.789   5655650.236
10 0 59266  24822.000000  0    4602029.518   -385633.844   5101768.271
10 0 59266  24942.000000  0    5202300.923   -658509.176   4458126.031
10 0 59266  25062.000000  0    5706898.191   -929544.944   3736019.452
10 0 59266  25182.000000  0    6107063.021  -1192248.529   2948138.977
10 0 59266  25302.000000  0    6395983.683  -1440136.725   2108346.192
10 0 59266  25422.000000  0    6568919.693  -1666886.112   1231426.937
10 0 59266  25542.000000  0    6623285.920  -1866483.165    332825.889
10 0 59266  25662.000000  0    6558694.226  -2033370.735   -571633.735
10 0 59266  25782.000000  0    6376949.190  -2162584.519  -1466038.194
10 0 59266  25902.000000  0    6082000.280  -2249878.259  -2334671.915
10 0 59266  26022.000000  0    5679850.293  -2291833.300  -3162300.672
10 0 59266  26142.000000  0    5178424.221  -2285950.080  -3934442.133
10 0 59266  26262.000000  0    4587403.462  -2230720.009  -4637619.411
10 0 59266  26382.000000  0    3918028.526  -2125676.360  -5259593.702
10 0 59266  26502.000000  0    3182874.731  -1971423.037  -5789570.272
10 0 59266  26622.000000  0    2395609.299  -1769640.844  -6218374.955
10 0 59266  26742.000000  0    1570735.007  -1523071.824  -6538602.937
10 0 59266  26862.000000  0     723321.698  -1235481.701  -6744736.217
10 0 59266  26982.000000  0    -131266.236   -911602.336  -6833228.297
10 0 59266  27102.000000  0    -977643.024   -557054.591  -6802558.089
10 0 59266  27222.000000  0   -1800671.942   -178252.963  -6653253.414
10 0 59266  27342.000000  0   -2585730.119    217707.869  -6387882.088
10 0 59266  27462.000000  0   -3318962.179    623181.685  -6011012.012
10 0 59266  27582.000000  0   -3987521.442   1030113.843  -5529141.924
10 0 59266  27702.000000  0   -4579796.262   1430196.265  -4950600.184
10 0 59266  27822.000000  0   -5085616.360   1815033.216  -4285413.299
10 0 59266  27942.000000  0   -5496435.502   2176314.887  -3545142.109
10 0 59266  28062.000000  0   -5805485.239   2505993.301  -2742689.349
10 0 59266  28182.000000  0   -6007897.864   2796458.282  -1892080.485
10 0 59266  28302.000000  0   -6100794.048   3040709.278  -1008220.171
10 0 59266  28422.000000  0   -6083332.023   3232518.837   -106628.650
10 0 59266  28542.000000  0   -5956716.499   3366582.576    796837.147
10 0 59266  28662.000000  0   -5724164.882   3438651.425   1686271.456
10 0 59266  28782.000000  0   -5390832.436   3445643.396   2546008.653
10 0 59266  28902.000000  0   -4963698.724   3385731.279   3360907.333
10 0 59266  29022.000000  0   -4451418.596   3258404.195   4116624.218
10 0 59266  29142.000000  0   -3864140.475   3064501.090   4799870.976
10 0 59266  29262.000000  0   -3213298.878   2806216.376   5398648.321
10 0 59266  29382.000000  0   -2511384.936   2487078.731   5902455.975
99
